{"type":"FeatureCollection","features":[{"type":"Feature","geometry":{"bbox":[-65.18892120141547,-9.83793398690746,-65.06256361636454,-9.701564589806768],"type":"Polygon","coordinates":[[[-65.18892120141547,-9.714659286914339],[-65.16969660767353,-9.708734949785486],[-65.16620953703993,-9.707654326347125],[-65.14718486864452,-9.701564589806768],[-65.13635389160405,-9.716103378025648],[-65.12551298667208,-9.730651107126972],[-65.11468020163151,-9.745180546536803],[-65.10804821827874,-9.754079728623584],[-65.10667434066896,-9.752949321887833],[-65.09572113306511,-9.76739785040467],[-65.07381205062651,-9.796294405809288],[-65.06256361636454,-9.811107643319026],[-65.07619395229904,-9.82171573594814],[-65.09633740523427,-9.83793398690746],[-65.10627067185153,-9.824792974142223],[-65.14090205268982,-9.779246584408913],[-65.18892120141547,-9.714659286914339]]]},"properties":{"recibo":"RO-1100205-4C8EDDBB87A846698C3BE219E21F79EB","modfiscais":124.9036,"tema":"Área do Imovel","area":7494.2146,"municipio":"Porto Velho","estado":"Rondônia"}},{"type":"Feature","geometry":{"bbox":[-65.18892120141547,-9.83793398690746,-65.06256361636454,-9.701564589806768],"type":"Polygon","coordinates":[[[-65.18892120141547,-9.714659286914339],[-65.16969660767353,-9.708734949785486],[-65.16620953703993,-9.707654326347125],[-65.14718486864452,-9.701564589806768],[-65.13635389160405,-9.716103378025648],[-65.12551298667208,-9.730651107126972],[-65.11468020163151,-9.745180546536803],[-65.10804821827874,-9.754079728623584],[-65.10667434066896,-9.752949321887833],[-65.09572113306511,-9.76739785040467],[-65.07381205062651,-9.796294405809288],[-65.06256361636454,-9.811107643319026],[-65.07619395229904,-9.82171573594814],[-65.09633740523427,-9.83793398690746],[-65.10627067185153,-9.824792974142223],[-65.14090205268982,-9.779246584408913],[-65.18892120141547,-9.714659286914339]]]},"properties":{"recibo":"RO-1100205-4C8EDDBB87A846698C3BE219E21F79EB","modfiscais":124.9036,"tema":"Área Líquida do Imóvel","area":7494.2146,"municipio":"Porto Velho","estado":"Rondônia"}}]}