{"type":"FeatureCollection","features":[{"type":"Feature","geometry":{"bbox":[-64.98441098829032,-10.285340884448082,-64.84984297909845,-10.157554233542513],"type":"Polygon","coordinates":[[[-64.95057309422253,-10.158728935934192],[-64.93457055352027,-10.158968411793358],[-64.93429636002216,-10.15893387253865],[-64.93270025506891,-10.158699218882724],[-64.93270023877398,-10.158699217834549],[-64.91947858861496,-10.158930587316643],[-64.91031346542519,-10.159092609176763],[-64.91031346472805,-10.15909260919152],[-64.89736221462795,-10.159411912584677],[-64.89736221316551,-10.15941191263144],[-64.89709247401873,-10.15942251377253],[-64.88402155905865,-10.159488870223187],[-64.87078801640945,-10.158624521550921],[-64.87051741328621,-10.158580867415],[-64.87051740330332,-10.158580866315402],[-64.85327437526001,-10.157554233542513],[-64.85327435640106,-10.157554234203307],[-64.85327433800202,-10.157554238395244],[-64.85327432071809,-10.157554245969054],[-64.85327430516473,-10.157554256655033],[-64.85287793436889,-10.157885735070009],[-64.85287792161807,-10.157885747859114],[-64.8528779113754,-10.157885762732988],[-64.85287790397493,-10.15788577920653],[-64.8526972490616,-10.158410126227572],[-64.8526972442656,-10.158410147347892],[-64.85269724412942,-10.158410169005478],[-64.85269724865945,-10.158410190184439],[-64.85282549108393,-10.158798186493412],[-64.85282549818112,-10.158798202883453],[-64.8528255080808,-10.158798217749526],[-64.85282552046714,-10.158798230617398],[-64.85282553494503,-10.15879824107658],[-64.85282555105262,-10.15879824879342],[-64.8531835423808,-10.158931915928424],[-64.85318355028477,-10.1589319185106],[-64.85337571082304,-10.158985965404119],[-64.85347256985614,-10.159140600347802],[-64.85396080290825,-10.159977473910729],[-64.8539608042167,-10.159977476089438],[-64.85411111690345,-10.160220705830653],[-64.85411112084667,-10.160220711732258],[-64.85479269228368,-10.16116632289862],[-64.85518638196005,-10.161859336982177],[-64.85524275211276,-10.162599987946706],[-64.85511274031478,-10.163107581718402],[-64.85511274022329,-10.163107582078386],[-64.85498169820934,-10.16362722024916],[-64.85498169526043,-10.1636272405368],[-64.85498169651072,-10.163627260999478],[-64.85517646091935,-10.164806309073029],[-64.85499086280991,-10.165484705945914],[-64.85499085985116,-10.16548472152601],[-64.85499085939257,-10.165484737377927],[-64.85501280195116,-10.165919256515668],[-64.85501280508173,-10.165919276789309],[-64.85501281228342,-10.165919295997554],[-64.85501282325316,-10.165919313332079],[-64.85582050486663,-10.166945183246314],[-64.85591737160674,-10.16850373206945],[-64.85591737567634,-10.168503754750025],[-64.85607942656911,-10.169040886245686],[-64.8561553106396,-10.170251803736813],[-64.8561553132483,-10.170251820998956],[-64.85615531881936,-10.170251837544345],[-64.85642264589481,-10.170863233543447],[-64.85642265804377,-10.170863254174574],[-64.8564226747486,-10.170863271326525],[-64.85692641027454,-10.171269460686068],[-64.85722071068868,-10.171860964374764],[-64.85733836564003,-10.172405987747515],[-64.85695435959906,-10.172994728007536],[-64.8564554208197,-10.173483902100541],[-64.85645541117617,-10.17348391304531],[-64.85625355564497,-10.173749838977038],[-64.85625354523367,-10.173749855980207],[-64.85625353840241,-10.173749874710849],[-64.85625353542275,-10.17374989442441],[-64.85625353641312,-10.173749914337272],[-64.8563393146492,-10.174319218467396],[-64.85633931969488,-10.1743192381284],[-64.85633932860684,-10.17431925636548],[-64.85633934101787,-10.174319272427246],[-64.85633935641663,-10.174319285651928],[-64.85633937416866,-10.174319295494653],[-64.85633939354256,-10.174319301549888],[-64.8563394137401,-10.174319303568145],[-64.85681636289196,-10.174318316112526],[-64.85681636437005,-10.174318316098539],[-64.85709930560154,-10.174313547517022],[-64.85714070604897,-10.17453429268233],[-64.8568325628346,-10.174811178183703],[-64.85638298477363,-10.175158782780747],[-64.85638297224794,-10.175158794294857],[-64.85638296185542,-10.175158807765676],[-64.8563829538969,-10.175158822803278],[-64.85615133776378,-10.17570422020503],[-64.85568646813674,-10.175942965573833],[-64.85568645303464,-10.175942975124578],[-64.8556864398734,-10.175942987210611],[-64.85526671188533,-10.1764040561338],[-64.85526670166296,-10.176404069457742],[-64.8552666938144,-10.176404084304444],[-64.8550631536916,-10.176882525624606],[-64.85473238401717,-10.17712789993786],[-64.85400544237048,-10.177079591475115],[-64.85361437036649,-10.176971069427879],[-64.8536143504811,-10.176971066021764],[-64.85361433031672,-10.176971066676378],[-64.85361431069411,-10.176971071365083],[-64.85361429241199,-10.176971079897028],[-64.85361427621446,-10.176971091924942],[-64.85361426276084,-10.176971106959252],[-64.8534658876637,-10.177175068760548],[-64.85292405365175,-10.17767357637451],[-64.85243645911656,-10.177540668471174],[-64.85211004052883,-10.17720172845695],[-64.85211002739867,-10.17720171701021],[-64.85211001248133,-10.17720170801562],[-64.8521099962295,-10.177201701746096],[-64.85210997913627,-10.177201698391876],[-64.85117327317208,-10.177101501325488],[-64.85117325411109,-10.177101501113777],[-64.85117323535623,-10.17710150452281],[-64.851173217589,-10.177101511428715],[-64.85042094728792,-10.177480023487375],[-64.8504209313553,-10.177480033484247],[-64.85042091757653,-10.177480046287796],[-64.85042090643906,-10.177480061445047],[-64.85042089833692,-10.177480078419762],[-64.85042089355676,-10.177480096611397],[-64.85035037180685,-10.17790951579499],[-64.84984299307249,-10.17875788210437],[-64.84984298455497,-10.178757900266017],[-64.84984297983362,-10.178757919762234],[-64.84984297909845,-10.178757939808506],[-64.84984298237902,-10.178757959598185],[-64.84990917607888,-10.179002118339126],[-64.84990918365872,-10.179002137893383],[-64.84990919515018,-10.179002155436741],[-64.84990921004783,-10.179002170197606],[-64.84990922769643,-10.17900218152676],[-64.84990924731977,-10.179002188925919],[-64.84990926805476,-10.179002192069653],[-64.85029490068536,-10.179019718045863],[-64.85058854881007,-10.179034595956166],[-64.85067136904264,-10.179521841443837],[-64.85072980313895,-10.181015728504523],[-64.85072980551917,-10.181015746625338],[-64.85072981115765,-10.181015764010308],[-64.85072981986599,-10.181015780078722],[-64.85072983135336,-10.181015794293847],[-64.85114079606782,-10.181438618308144],[-64.85138549124585,-10.181722407022114],[-64.85120845831403,-10.182621396224468],[-64.8512084564318,-10.182621416194728],[-64.85120845857303,-10.182621436138882],[-64.85120846465156,-10.182621455254466],[-64.85120847442283,-10.182621472772356],[-64.85120848749368,-10.182621487987715],[-64.8512085033382,-10.182621500288345],[-64.85120852131887,-10.182621509179322],[-64.85719079807954,-10.184864752910054],[-64.8631731680265,-10.187107801022433],[-64.86341298069958,-10.18725106829392],[-64.86341298892506,-10.187251072700763],[-64.8714078000367,-10.191065445535815],[-64.87140780521744,-10.19106544782973],[-64.87859545417663,-10.194007362948035],[-64.87883319418395,-10.194150582495231],[-64.87786909913132,-10.19619905752478],[-64.87786909182509,-10.19619907918366],[-64.87786908962808,-10.19619910193583],[-64.87790642706968,-10.198241865937606],[-64.8771629852528,-10.199267619975558],[-64.87716297599692,-10.199267635540219],[-64.87716296969981,-10.19926765251892],[-64.87716296656797,-10.199267670354878],[-64.87695944756727,-10.201709604285643],[-64.87641921811554,-10.205292499128776],[-64.87641921725039,-10.205292506935852],[-64.87625243707761,-10.207634795701441],[-64.87625243682581,-10.207634802416266],[-64.87624255597447,-10.210184105224329],[-64.87624255654141,-10.210184116252181],[-64.87646007826265,-10.212216836785815],[-64.87646007848106,-10.212216838659565],[-64.87674720413142,-10.214493234998194],[-64.8767472086471,-10.214493254612758],[-64.87674721699922,-10.214493272925722],[-64.87674722884941,-10.214493289195183],[-64.87819687671077,-10.216112105372805],[-64.87912313962507,-10.218393832438021],[-64.87980796515696,-10.220631759186338],[-64.88024544117013,-10.222862073688415],[-64.88024544174229,-10.222862076405157],[-64.88080442289045,-10.225344806194848],[-64.88121407503341,-10.22772894542431],[-64.88104286315658,-10.229944683235738],[-64.88079687712158,-10.232341662121557],[-64.88079687705878,-10.232341662753178],[-64.88068722721833,-10.233481316924886],[-64.88068722715308,-10.233481335374707],[-64.88079990358081,-10.234746246355105],[-64.88026820379199,-10.237009264876042],[-64.88026820121078,-10.237009284016715],[-64.88013348124292,-10.240616953851749],[-64.87971693099662,-10.242861235395019],[-64.87971692952934,-10.242861247136984],[-64.87957245703993,-10.245076844808734],[-64.87957245682912,-10.245076851788133],[-64.87958279363043,-10.24726443335185],[-64.87953565839227,-10.249425226810203],[-64.87953565853088,-10.249425234687696],[-64.87966095747431,-10.25162119206522],[-64.87966095767601,-10.2516211948942],[-64.87984573565792,-10.253780633606413],[-64.87970854781926,-10.254459400854941],[-64.87970854588012,-10.25445942359185],[-64.87975140936747,-10.25592362960013],[-64.879751409435,-10.255923631370687],[-64.87985254268716,-10.258074527136882],[-64.87988782637274,-10.258887901793694],[-64.87974494939908,-10.260335092212404],[-64.8793775742843,-10.262561015625694],[-64.87898130163157,-10.264778069543958],[-64.87898130154127,-10.264778070056872],[-64.87857341420019,-10.267130782975084],[-64.87796359744904,-10.26912307298085],[-64.87796359636381,-10.269123076794932],[-64.87734877214903,-10.271458914723558],[-64.87734877055303,-10.271458921828854],[-64.87696194336272,-10.273531285377587],[-64.87696194324907,-10.2735312859972],[-64.87654460835695,-10.275847901816352],[-64.8765446068167,-10.275847916581027],[-64.87647944044829,-10.278044965322715],[-64.87595465695995,-10.280235635452339],[-64.87595465446054,-10.280235651653426],[-64.87579898091502,-10.282424195919317],[-64.8756433084659,-10.284612736515383],[-64.87560894032518,-10.28488286312284],[-64.8756089397096,-10.284882881809116],[-64.87560894258313,-10.284882900283383],[-64.87560894884535,-10.284882917899866],[-64.87560895827735,-10.284882934042768],[-64.87560897054942,-10.284882948147805],[-64.87560898523259,-10.284882959721928],[-64.8756090018136,-10.284882968360556],[-64.87560901971285,-10.28488297376172],[-64.87560903830467,-10.28488297573662],[-64.89523318151303,-10.285122569518464],[-64.9044046781463,-10.285240532691494],[-64.90440467888124,-10.285240532698246],[-64.92261201038434,-10.285340884448082],[-64.92261203672194,-10.285340881067713],[-64.92288915125123,-10.285266921869042],[-64.94143322000764,-10.284505460056815],[-64.96001663613461,-10.283803818895196],[-64.96001663797408,-10.283803818808776],[-64.96029054803904,-10.283788421569309],[-64.97720802864738,-10.28315915787504],[-64.97720804694397,-10.28315915549106],[-64.97720806449111,-10.283159149786108],[-64.97720808069141,-10.283159140954409],[-64.97720809499333,-10.283159129296637],[-64.97720810690997,-10.283159115209678],[-64.97720811603563,-10.283159099173123],[-64.97720812205961,-10.283159081732933],[-64.97720812477685,-10.283159063482858],[-64.97745892590196,-10.278637864141434],[-64.97772016455791,-10.274179876354532],[-64.97797945709205,-10.269730940053474],[-64.9779794571044,-10.269730939837705],[-64.97810681549528,-10.267461288414443],[-64.97810681550224,-10.267461288288812],[-64.97836423294812,-10.262768301197125],[-64.9783642329796,-10.262768300589451],[-64.97847707810843,-10.26045354192937],[-64.97858934857175,-10.258193022254341],[-64.97858934858053,-10.258193022074009],[-64.97870098861327,-10.255860190733513],[-64.97892437210787,-10.251474748551756],[-64.97892437214696,-10.251474747715255],[-64.97902169586929,-10.249187200920735],[-64.9791243138986,-10.24701713348198],[-64.97933816906318,-10.2425503955651],[-64.9795884197769,-10.23806535663509],[-64.97986485337348,-10.233489765475296],[-64.97986485338141,-10.233489765342714],[-64.98011114441495,-10.229321127969971],[-64.98011114442487,-10.22932112779955],[-64.98034562376101,-10.225233915971991],[-64.9805772549433,-10.221246153889986],[-64.98057725495146,-10.221246153747858],[-64.98079755287539,-10.217357894491466],[-64.98095510509621,-10.214654171038216],[-64.98109405754026,-10.212321174178907],[-64.98133899689013,-10.20827005665747],[-64.9813389969028,-10.208270056444071],[-64.98158104313625,-10.20411952332348],[-64.98158104314591,-10.20411952315544],[-64.98181812602097,-10.199932862469607],[-64.9818181260472,-10.199932861985383],[-64.98204888217688,-10.195475059586313],[-64.98228550817988,-10.191360717269339],[-64.9822855082017,-10.19136071687698],[-64.98252528723687,-10.186884781299675],[-64.98277452983743,-10.182463024480983],[-64.98277452987126,-10.182463023844617],[-64.98299460202824,-10.1780595221568],[-64.98300003022672,-10.17797813695042],[-64.98336630694196,-10.173564710320017],[-64.98336630697813,-10.173564709872151],[-64.9837197108646,-10.169060968017957],[-64.98371971092588,-10.169060967193289],[-64.98402740226923,-10.16467501319568],[-64.9842105482959,-10.162106725820651],[-64.98441098829032,-10.159339467871916],[-64.98441098774767,-10.159339447992751],[-64.98441098328205,-10.159339428614054],[-64.98441097507008,-10.159339410502204],[-64.9844109634365,-10.15933939437348],[-64.98441094884141,-10.159339380865736],[-64.98441093186202,-10.159339370513171],[-64.98441091316978,-10.159339363725202],[-64.98441089350398,-10.159339360770277],[-64.9663682927633,-10.158444729364723],[-64.96610116480188,-10.15835594180618],[-64.96610114804996,-10.158355937801321],[-64.96610113085927,-10.1583559367305],[-64.95057309422253,-10.158728935934192]]]},"properties":{"recibo":"RO-1100338-5BA735B8EFF64907BEC586443B5A5A83","modfiscais":1.0658,"tema":"Área do Imovel","area":16434.7585,"municipio":"Nova Mamoré","estado":"Rondônia"}},{"type":"Feature","geometry":{"bbox":[-64.98441098829032,-10.285340884448082,-64.84984297909845,-10.157554233542513],"type":"Polygon","coordinates":[[[-64.95057309422253,-10.158728935934192],[-64.93457055352027,-10.158968411793358],[-64.93429636002216,-10.15893387253865],[-64.93270025506891,-10.158699218882724],[-64.93270023877398,-10.158699217834549],[-64.91947858861496,-10.158930587316643],[-64.91031346542519,-10.159092609176763],[-64.91031346472805,-10.15909260919152],[-64.89736221462795,-10.159411912584677],[-64.89736221316551,-10.15941191263144],[-64.89709247401873,-10.15942251377253],[-64.88402155905865,-10.159488870223187],[-64.87078801640945,-10.158624521550921],[-64.87051741328621,-10.158580867415],[-64.87051740330332,-10.158580866315402],[-64.85327437526001,-10.157554233542513],[-64.85327435640106,-10.157554234203307],[-64.85327433800202,-10.157554238395244],[-64.85327432071809,-10.157554245969054],[-64.85327430516473,-10.157554256655033],[-64.85287793436889,-10.157885735070009],[-64.85287792161807,-10.157885747859114],[-64.8528779113754,-10.157885762732988],[-64.85287790397493,-10.15788577920653],[-64.8526972490616,-10.158410126227572],[-64.8526972442656,-10.158410147347892],[-64.85269724412942,-10.158410169005478],[-64.85269724865945,-10.158410190184439],[-64.85282549108393,-10.158798186493412],[-64.85282549818112,-10.158798202883453],[-64.8528255080808,-10.158798217749526],[-64.85282552046714,-10.158798230617398],[-64.85282553494503,-10.15879824107658],[-64.85282555105262,-10.15879824879342],[-64.8531835423808,-10.158931915928424],[-64.85318355028477,-10.1589319185106],[-64.85337571082304,-10.158985965404119],[-64.85347256985614,-10.159140600347802],[-64.85396080290825,-10.159977473910729],[-64.8539608042167,-10.159977476089438],[-64.85411111690345,-10.160220705830653],[-64.85411112084667,-10.160220711732258],[-64.85479269228368,-10.16116632289862],[-64.85518638196005,-10.161859336982177],[-64.85524275211276,-10.162599987946706],[-64.85511274031478,-10.163107581718402],[-64.85511274022329,-10.163107582078386],[-64.85498169820934,-10.16362722024916],[-64.85498169526043,-10.1636272405368],[-64.85498169651072,-10.163627260999478],[-64.85517646091935,-10.164806309073029],[-64.85499086280991,-10.165484705945914],[-64.85499085985116,-10.16548472152601],[-64.85499085939257,-10.165484737377927],[-64.85501280195116,-10.165919256515668],[-64.85501280508173,-10.165919276789309],[-64.85501281228342,-10.165919295997554],[-64.85501282325316,-10.165919313332079],[-64.85582050486663,-10.166945183246314],[-64.85591737160674,-10.16850373206945],[-64.85591737567634,-10.168503754750025],[-64.85607942656911,-10.169040886245686],[-64.8561553106396,-10.170251803736813],[-64.8561553132483,-10.170251820998956],[-64.85615531881936,-10.170251837544345],[-64.85642264589481,-10.170863233543447],[-64.85642265804377,-10.170863254174574],[-64.8564226747486,-10.170863271326525],[-64.85692641027454,-10.171269460686068],[-64.85722071068868,-10.171860964374764],[-64.85733836564003,-10.172405987747515],[-64.85695435959906,-10.172994728007536],[-64.8564554208197,-10.173483902100541],[-64.85645541117617,-10.17348391304531],[-64.85625355564497,-10.173749838977038],[-64.85625354523367,-10.173749855980207],[-64.85625353840241,-10.173749874710849],[-64.85625353542275,-10.17374989442441],[-64.85625353641312,-10.173749914337272],[-64.8563393146492,-10.174319218467396],[-64.85633931969488,-10.1743192381284],[-64.85633932860684,-10.17431925636548],[-64.85633934101787,-10.174319272427246],[-64.85633935641663,-10.174319285651928],[-64.85633937416866,-10.174319295494653],[-64.85633939354256,-10.174319301549888],[-64.8563394137401,-10.174319303568145],[-64.85681636289196,-10.174318316112526],[-64.85681636437005,-10.174318316098539],[-64.85709930560154,-10.174313547517022],[-64.85714070604897,-10.17453429268233],[-64.8568325628346,-10.174811178183703],[-64.85638298477363,-10.175158782780747],[-64.85638297224794,-10.175158794294857],[-64.85638296185542,-10.175158807765676],[-64.8563829538969,-10.175158822803278],[-64.85615133776378,-10.17570422020503],[-64.85568646813674,-10.175942965573833],[-64.85568645303464,-10.175942975124578],[-64.8556864398734,-10.175942987210611],[-64.85526671188533,-10.1764040561338],[-64.85526670166296,-10.176404069457742],[-64.8552666938144,-10.176404084304444],[-64.8550631536916,-10.176882525624606],[-64.85473238401717,-10.17712789993786],[-64.85400544237048,-10.177079591475115],[-64.85361437036649,-10.176971069427879],[-64.8536143504811,-10.176971066021764],[-64.85361433031672,-10.176971066676378],[-64.85361431069411,-10.176971071365083],[-64.85361429241199,-10.176971079897028],[-64.85361427621446,-10.176971091924942],[-64.85361426276084,-10.176971106959252],[-64.8534658876637,-10.177175068760548],[-64.85292405365175,-10.17767357637451],[-64.85243645911656,-10.177540668471174],[-64.85211004052883,-10.17720172845695],[-64.85211002739867,-10.17720171701021],[-64.85211001248133,-10.17720170801562],[-64.8521099962295,-10.177201701746096],[-64.85210997913627,-10.177201698391876],[-64.85117327317208,-10.177101501325488],[-64.85117325411109,-10.177101501113777],[-64.85117323535623,-10.17710150452281],[-64.851173217589,-10.177101511428715],[-64.85042094728792,-10.177480023487375],[-64.8504209313553,-10.177480033484247],[-64.85042091757653,-10.177480046287796],[-64.85042090643906,-10.177480061445047],[-64.85042089833692,-10.177480078419762],[-64.85042089355676,-10.177480096611397],[-64.85035037180685,-10.17790951579499],[-64.84984299307249,-10.17875788210437],[-64.84984298455497,-10.178757900266017],[-64.84984297983362,-10.178757919762234],[-64.84984297909845,-10.178757939808506],[-64.84984298237902,-10.178757959598185],[-64.84990917607888,-10.179002118339126],[-64.84990918365872,-10.179002137893383],[-64.84990919515018,-10.179002155436741],[-64.84990921004783,-10.179002170197606],[-64.84990922769643,-10.17900218152676],[-64.84990924731977,-10.179002188925919],[-64.84990926805476,-10.179002192069653],[-64.85029490068536,-10.179019718045863],[-64.85058854881007,-10.179034595956166],[-64.85067136904264,-10.179521841443837],[-64.85072980313895,-10.181015728504523],[-64.85072980551917,-10.181015746625338],[-64.85072981115765,-10.181015764010308],[-64.85072981986599,-10.181015780078722],[-64.85072983135336,-10.181015794293847],[-64.85114079606782,-10.181438618308144],[-64.85138549124585,-10.181722407022114],[-64.85120845831403,-10.182621396224468],[-64.8512084564318,-10.182621416194728],[-64.85120845857303,-10.182621436138882],[-64.85120846465156,-10.182621455254466],[-64.85120847442283,-10.182621472772356],[-64.85120848749368,-10.182621487987715],[-64.8512085033382,-10.182621500288345],[-64.85120852131887,-10.182621509179322],[-64.85719079807954,-10.184864752910054],[-64.8631731680265,-10.187107801022433],[-64.86341298069958,-10.18725106829392],[-64.86341298892506,-10.187251072700763],[-64.8714078000367,-10.191065445535815],[-64.87140780521744,-10.19106544782973],[-64.87859545417663,-10.194007362948035],[-64.87883319418395,-10.194150582495231],[-64.87786909913132,-10.19619905752478],[-64.87786909182509,-10.19619907918366],[-64.87786908962808,-10.19619910193583],[-64.87790642706968,-10.198241865937606],[-64.8771629852528,-10.199267619975558],[-64.87716297599692,-10.199267635540219],[-64.87716296969981,-10.19926765251892],[-64.87716296656797,-10.199267670354878],[-64.87695944756727,-10.201709604285643],[-64.87641921811554,-10.205292499128776],[-64.87641921725039,-10.205292506935852],[-64.87625243707761,-10.207634795701441],[-64.87625243682581,-10.207634802416266],[-64.87624255597447,-10.210184105224329],[-64.87624255654141,-10.210184116252181],[-64.87646007826265,-10.212216836785815],[-64.87646007848106,-10.212216838659565],[-64.87674720413142,-10.214493234998194],[-64.8767472086471,-10.214493254612758],[-64.87674721699922,-10.214493272925722],[-64.87674722884941,-10.214493289195183],[-64.87819687671077,-10.216112105372805],[-64.87912313962507,-10.218393832438021],[-64.87980796515696,-10.220631759186338],[-64.88024544117013,-10.222862073688415],[-64.88024544174229,-10.222862076405157],[-64.88080442289045,-10.225344806194848],[-64.88121407503341,-10.22772894542431],[-64.88104286315658,-10.229944683235738],[-64.88079687712158,-10.232341662121557],[-64.88079687705878,-10.232341662753178],[-64.88068722721833,-10.233481316924886],[-64.88068722715308,-10.233481335374707],[-64.88079990358081,-10.234746246355105],[-64.88026820379199,-10.237009264876042],[-64.88026820121078,-10.237009284016715],[-64.88013348124292,-10.240616953851749],[-64.87971693099662,-10.242861235395019],[-64.87971692952934,-10.242861247136984],[-64.87957245703993,-10.245076844808734],[-64.87957245682912,-10.245076851788133],[-64.87958279363043,-10.24726443335185],[-64.87953565839227,-10.249425226810203],[-64.87953565853088,-10.249425234687696],[-64.87966095747431,-10.25162119206522],[-64.87966095767601,-10.2516211948942],[-64.87984573565792,-10.253780633606413],[-64.87970854781926,-10.254459400854941],[-64.87970854588012,-10.25445942359185],[-64.87975140936747,-10.25592362960013],[-64.879751409435,-10.255923631370687],[-64.87985254268716,-10.258074527136882],[-64.87988782637274,-10.258887901793694],[-64.87974494939908,-10.260335092212404],[-64.8793775742843,-10.262561015625694],[-64.87898130163157,-10.264778069543958],[-64.87898130154127,-10.264778070056872],[-64.87857341420019,-10.267130782975084],[-64.87796359744904,-10.26912307298085],[-64.87796359636381,-10.269123076794932],[-64.87734877214903,-10.271458914723558],[-64.87734877055303,-10.271458921828854],[-64.87696194336272,-10.273531285377587],[-64.87696194324907,-10.2735312859972],[-64.87654460835695,-10.275847901816352],[-64.8765446068167,-10.275847916581027],[-64.87647944044829,-10.278044965322715],[-64.87595465695995,-10.280235635452339],[-64.87595465446054,-10.280235651653426],[-64.87579898091502,-10.282424195919317],[-64.8756433084659,-10.284612736515383],[-64.87560894032518,-10.28488286312284],[-64.8756089397096,-10.284882881809116],[-64.87560894258313,-10.284882900283383],[-64.87560894884535,-10.284882917899866],[-64.87560895827735,-10.284882934042768],[-64.87560897054942,-10.284882948147805],[-64.87560898523259,-10.284882959721928],[-64.8756090018136,-10.284882968360556],[-64.87560901971285,-10.28488297376172],[-64.87560903830467,-10.28488297573662],[-64.89523318151303,-10.285122569518464],[-64.9044046781463,-10.285240532691494],[-64.90440467888124,-10.285240532698246],[-64.92261201038434,-10.285340884448082],[-64.92261203672194,-10.285340881067713],[-64.92288915125123,-10.285266921869042],[-64.94143322000764,-10.284505460056815],[-64.96001663613461,-10.283803818895196],[-64.96001663797408,-10.283803818808776],[-64.96029054803904,-10.283788421569309],[-64.97720802864738,-10.28315915787504],[-64.97720804694397,-10.28315915549106],[-64.97720806449111,-10.283159149786108],[-64.97720808069141,-10.283159140954409],[-64.97720809499333,-10.283159129296637],[-64.97720810690997,-10.283159115209678],[-64.97720811603563,-10.283159099173123],[-64.97720812205961,-10.283159081732933],[-64.97720812477685,-10.283159063482858],[-64.97745892590196,-10.278637864141434],[-64.97772016455791,-10.274179876354532],[-64.97797945709205,-10.269730940053474],[-64.9779794571044,-10.269730939837705],[-64.97810681549528,-10.267461288414443],[-64.97810681550224,-10.267461288288812],[-64.97836423294812,-10.262768301197125],[-64.9783642329796,-10.262768300589451],[-64.97847707810843,-10.26045354192937],[-64.97858934857175,-10.258193022254341],[-64.97858934858053,-10.258193022074009],[-64.97870098861327,-10.255860190733513],[-64.97892437210787,-10.251474748551756],[-64.97892437214696,-10.251474747715255],[-64.97902169586929,-10.249187200920735],[-64.9791243138986,-10.24701713348198],[-64.97933816906318,-10.2425503955651],[-64.9795884197769,-10.23806535663509],[-64.97986485337348,-10.233489765475296],[-64.97986485338141,-10.233489765342714],[-64.98011114441495,-10.229321127969971],[-64.98011114442487,-10.22932112779955],[-64.98034562376101,-10.225233915971991],[-64.9805772549433,-10.221246153889986],[-64.98057725495146,-10.221246153747858],[-64.98079755287539,-10.217357894491466],[-64.98095510509621,-10.214654171038216],[-64.98109405754026,-10.212321174178907],[-64.98133899689013,-10.20827005665747],[-64.9813389969028,-10.208270056444071],[-64.98158104313625,-10.20411952332348],[-64.98158104314591,-10.20411952315544],[-64.98181812602097,-10.199932862469607],[-64.9818181260472,-10.199932861985383],[-64.98204888217688,-10.195475059586313],[-64.98228550817988,-10.191360717269339],[-64.9822855082017,-10.19136071687698],[-64.98252528723687,-10.186884781299675],[-64.98277452983743,-10.182463024480983],[-64.98277452987126,-10.182463023844617],[-64.98299460202824,-10.1780595221568],[-64.98300003022672,-10.17797813695042],[-64.98336630694196,-10.173564710320017],[-64.98336630697813,-10.173564709872151],[-64.9837197108646,-10.169060968017957],[-64.98371971092588,-10.169060967193289],[-64.98402740226923,-10.16467501319568],[-64.9842105482959,-10.162106725820651],[-64.98441098829032,-10.159339467871916],[-64.98441098774767,-10.159339447992751],[-64.98441098328205,-10.159339428614054],[-64.98441097507008,-10.159339410502204],[-64.9844109634365,-10.15933939437348],[-64.98441094884141,-10.159339380865736],[-64.98441093186202,-10.159339370513171],[-64.98441091316978,-10.159339363725202],[-64.98441089350398,-10.159339360770277],[-64.9663682927633,-10.158444729364723],[-64.96610116480188,-10.15835594180618],[-64.96610114804996,-10.158355937801321],[-64.96610113085927,-10.1583559367305],[-64.95057309422253,-10.158728935934192]]]},"properties":{"recibo":"RO-1100338-5BA735B8EFF64907BEC586443B5A5A83","modfiscais":1.0658,"tema":"Área Líquida do Imóvel","area":16434.7585,"municipio":"Nova Mamoré","estado":"Rondônia"}}]}