{"type":"FeatureCollection","features":[{"type":"Feature","geometry":{"bbox":[-65.22101770626142,-9.844442581428776,-65.1052494297013,-9.714613658269572],"type":"Polygon","coordinates":[[[-65.18895624606172,-9.714613658269572],[-65.14090205277563,-9.779246584407261],[-65.14017916769464,-9.780200201387318],[-65.10627067192824,-9.824792974140685],[-65.1052494297013,-9.826155161610703],[-65.1302502348633,-9.844442581428776],[-65.13210152944286,-9.841669003924828],[-65.1352657221306,-9.838140665185312],[-65.1526895805263,-9.815398991433439],[-65.22101770626142,-9.724303239818246],[-65.19242889632353,-9.715697950968204],[-65.18895624606172,-9.714613658269572]]]},"properties":{"recibo":"RO-1100205-9C62FD556ECE4163BA3361E65BE55B91","modfiscais":91.6934,"tema":"Área do Imovel","area":5501.6021,"municipio":"Porto Velho","estado":"Rondônia"}},{"type":"Feature","geometry":{"bbox":[-65.22101770626142,-9.844442581428776,-65.1052494297013,-9.714613658269572],"type":"Polygon","coordinates":[[[-65.18895624606172,-9.714613658269572],[-65.14090205277563,-9.779246584407261],[-65.14017916769464,-9.780200201387318],[-65.10627067192824,-9.824792974140685],[-65.1052494297013,-9.826155161610703],[-65.1302502348633,-9.844442581428776],[-65.13210152944286,-9.841669003924828],[-65.1352657221306,-9.838140665185312],[-65.1526895805263,-9.815398991433439],[-65.22101770626142,-9.724303239818246],[-65.19242889632353,-9.715697950968204],[-65.18895624606172,-9.714613658269572]]]},"properties":{"recibo":"RO-1100205-9C62FD556ECE4163BA3361E65BE55B91","modfiscais":91.6934,"tema":"Área Líquida do Imóvel","area":5501.6021,"municipio":"Porto Velho","estado":"Rondônia"}}]}