{"type":"FeatureCollection","features":[{"type":"Feature","geometry":{"bbox":[-65.13036585650298,-9.929190932016272,-65.02010414955708,-9.821710792950766],"type":"Polygon","coordinates":[[[-65.07619101602756,-9.821710792950766],[-65.0653574946267,-9.835799746498688],[-65.05429743118955,-9.85018122546988],[-65.04322976659508,-9.864572002411613],[-65.0321379930622,-9.878996517711514],[-65.02010414955708,-9.894648883241278],[-65.02098103649892,-9.895324561343953],[-65.02810187369764,-9.900771055152905],[-65.04534352488706,-9.913898569457338],[-65.05933504000198,-9.92445575405181],[-65.05946684931625,-9.924241135479962],[-65.06468659748387,-9.928136342734197],[-65.064574498182,-9.928407117776734],[-65.06561353872058,-9.929190932016272],[-65.07133514025003,-9.921736409421845],[-65.08420681810843,-9.904910125620223],[-65.13036585650298,-9.844525209538743],[-65.10524760432615,-9.826148702557038],[-65.10490312282077,-9.826608864148811],[-65.09713025100965,-9.836883600615678],[-65.09633628946544,-9.837933082327131],[-65.07619101602756,-9.821710792950766]]]},"properties":{"recibo":"RO-1100205-0A28442F0D014903B2ECEC48D1CF3D59","modfiscais":114.9533,"tema":"Área do Imovel","area":6897.1954,"municipio":"Porto Velho","estado":"Rondônia"}},{"type":"Feature","geometry":{"bbox":[-65.13036585650298,-9.929190932016272,-65.02010414955708,-9.821710792950766],"type":"Polygon","coordinates":[[[-65.07619101602756,-9.821710792950766],[-65.0653574946267,-9.835799746498688],[-65.05429743118955,-9.85018122546988],[-65.04322976659508,-9.864572002411613],[-65.0321379930622,-9.878996517711514],[-65.02010414955708,-9.894648883241278],[-65.02098103649892,-9.895324561343953],[-65.02810187369764,-9.900771055152905],[-65.04534352488706,-9.913898569457338],[-65.05933504000198,-9.92445575405181],[-65.05946684931625,-9.924241135479962],[-65.06468659748387,-9.928136342734197],[-65.064574498182,-9.928407117776734],[-65.06561353872058,-9.929190932016272],[-65.07133514025003,-9.921736409421845],[-65.08420681810843,-9.904910125620223],[-65.13036585650298,-9.844525209538743],[-65.10524760432615,-9.826148702557038],[-65.10490312282077,-9.826608864148811],[-65.09713025100965,-9.836883600615678],[-65.09633628946544,-9.837933082327131],[-65.07619101602756,-9.821710792950766]]]},"properties":{"recibo":"RO-1100205-0A28442F0D014903B2ECEC48D1CF3D59","modfiscais":114.9533,"tema":"Área Líquida do Imóvel","area":6897.1954,"municipio":"Porto Velho","estado":"Rondônia"}}]}